DELTA 2 R/B(1)          
1 20453U 90008B   26145.06372198  .00059243  00000+0  50164-3 0  9996
2 20453  35.6028  29.9326 0071445 257.4876 101.7863 15.65158097938071
COSMOS 2058             
1 20465U 90010A   26144.97169757  .00002387  00000+0  13776-3 0  9991
2 20465  82.4683 332.2530 0010722  73.1110 287.1295 15.11855319953766
SL-14 R/B               
1 20466U 90010B   26145.10224352  .00000262  00000+0  28751-4 0  9991
2 20466  82.5030 195.6238 0020979  51.1746 309.1338 14.83629847939812
SL-14 R/B               
1 20511U 90018B   26145.05844948  .00000286  00000+0  32941-4 0  9995
2 20511  82.5198 151.7269 0015748 195.4082 164.6655 14.82199139933891
HST                     
1 20580U 90037B   26144.93150809  .00005711  00000+0  18067-3 0  9994
2 20580  28.4734 239.4838 0001255 242.4756 117.5713 15.30477719785004
SL-16 R/B               
1 20625U 90046B   26145.11482397 -.00000266  00000+0 -11269-3 0  9994
2 20625  70.9967 137.4049 0014798 197.5955 162.4657 14.15020006859207
COSMOS 2084             
1 20663U 90055A   26145.15478506  .00001857  00000+0  14050-3 0  9993
2 20663  62.7894  74.6967 0006218 239.2809 120.7679 15.06003640947832
SL-6 R/B(2)             
1 20666U 90055D   26144.97759012  .00001357  00000+0  11131-3 0  9991
2 20666  62.7829 354.3514 0036915   1.8550 358.2679 15.03908211949668
SL-8 R/B                
1 20775U 90078B   26145.12285389  .00015556  00000+0  44058-3 0  9996
2 20775  82.9030 182.4676 0354493 116.0289 247.7888 14.91494225820683
SL-8 R/B                
1 21088U 91006B   26145.17297522 -.00000003  00000+0 -18038-4 0  9996
2 21088  82.9405 113.1546 0022358 177.2539 194.4340 13.77504508774603
OKEAN-3                 
1 21397U 91039A   26144.80589285  .00003108  00000+0  21543-3 0  9995
2 21397  82.5161 263.0513 0015410  72.7928 287.4985 15.05198792876486
COSMOS 2151             
1 21422U 91042A   26145.11817056  .00001227  00000+0  95454-4 0  9996
2 21422  82.4973   9.9441 0012832 154.3712 205.8151 15.00365956874654
SL-14 R/B               
1 21423U 91042B   26145.06016529  .00000298  00000+0  34693-4 0  9992
2 21423  82.4914 148.5844 0016821 355.7496   4.3572 14.81885033864384
ERS-1                   
1 21574U 91050A   26145.08823340  .00000227  00000+0  87307-4 0  9999
2 21574  98.7806 165.2210 0031397 337.7267  22.2554 14.39500322826728
ARIANE 40 R/B           
1 21610U 91050F   26145.16582757  .00000240  00000+0  84216-4 0  9994
2 21610  98.1889 194.4777 0002996 176.6807 183.4404 14.42940992830026
INTERCOSMOS 25          
1 21819U 91086A   26145.08525667  .00000023  00000+0  38866-5 0  9992
2 21819  82.6042 263.7896 1485017 312.2511  36.1529 12.12163558505940
SL-8 R/B                
1 21876U 92008B   26145.14701322  .00000018  00000+0  29110-5 0  9997
2 21876  82.9281 210.9168 0033186 281.4016 138.0962 13.75973111719932
SL-8 R/B                
1 21938U 92020B   26145.13118049  .00000026  00000+0  10800-4 0  9991
2 21938  82.9292  96.9815 0030534  84.4510 287.1933 13.75546811711645
USA 81                  
1 21949U 92023A   26145.08251810  .00000156  00000+0  50339-4 0  9999
2 21949  85.0068  87.3407 0002456 104.4676 255.6789 14.32390565105723
COSMOS 2219             
1 22219U 92076A   26144.91791233 -.00000296  00000+0 -13068-3 0  9991
2 22219  71.0603 218.7159 0015609  82.2785 278.0110 14.14099866729152
SL-16 R/B               
1 22220U 92076B   26145.09416235  .00000190  00000+0  11875-3 0  9994
2 22220  71.0014  27.4288 0013717 330.0648 136.8516 14.16868648732652
COSMOS 2221             
1 22236U 92080A   26145.13770706  .00001083  00000+0  93087-4 0  9995
2 22236  82.5047 205.8455 0012681 298.3205  61.6738 14.96465627792222
SL-16 R/B               
1 22285U 92093B   26144.92153625  .00000202  00000+0  12804-3 0  9993
2 22285  71.0208 204.2325 0005211 214.2694 145.8093 14.15459135723947
COSMOS 2228             
1 22286U 92094A   26145.16920197  .00001465  00000+0  12306-3 0  9997
2 22286  82.5171 164.0899 0019066  48.5916 311.6941 14.97492934787502
SL-16 R/B               
1 22566U 93016B   26145.18181257 -.00000195  00000+0 -75538-4 0  9999
2 22566  71.0090  54.5261 0011528 217.6469 142.3848 14.15311584712996
COSMOS 2242             
1 22626U 93024A   26145.11827250  .00001187  00000+0  10106-3 0  9997
2 22626  82.5193 193.6116 0017415  52.5011 307.7792 14.96826399791826
SL-16 R/B               
1 22803U 93059B   26145.12777426  .00000033  00000+0  39981-4 0  9994
2 22803  70.9901 209.9315 0014840  94.3825 265.8994 14.17244426690362
ARIANE 40 R/B           
1 22830U 93061H   26145.16201632  .00000153  00000+0  71621-4 0  9992
2 22830  98.4825 212.4962 0011731  61.7819 298.4548 14.32896388705053
COSMOS 2278             
1 23087U 94023A   26145.04975723 -.00000014  00000+0  17242-4 0  9998
2 23087  71.0540  15.3367 0010842 270.6568  89.3312 14.14384166655609
SL-16 R/B               
1 23088U 94023B   26144.77908581 -.00000276  00000+0 -11779-3 0  9995
2 23088  71.0003 271.0896 0004123 217.3362 142.7475 14.15020978656858
SL-16 R/B               
1 23343U 94074B   26145.08486964  .00000326  00000+0  50273-4 0  9993
2 23343  97.7003 172.7673 0006026 345.7299  76.0409 14.79479082698548
SL-16 R/B               
1 23405U 94077B   26145.15501413  .00000206  00000+0  12965-3 0  9992
2 23405  70.9819 191.6184 0001717 350.7340   9.3751 14.15574970627056
ARIANE 40+ R/B          
1 23561U 95021B   26145.18310053  .00000220  00000+0  84103-4 0  9996
2 23561  98.4416 215.5895 0005478 272.4697 106.9792 14.39818611630259
SL-16 R/B               
1 23705U 95058B   26145.09501961 -.00000066  00000+0 -93755-5 0  9990
2 23705  71.0233  19.8426 0012736 352.6415   7.4519 14.15508895578664
SL-16 R/B               
1 24298U 96051B   26145.08573997  .00000125  00000+0  94516-4 0  9998
2 24298  70.7635  13.5423 0013624  13.5500 346.5982 14.12437472532432
ORBVIEW 2 (SEASTAR)     
1 24883U 97037A   26145.08882722  .00000173  00000+0  76424-4 0  9993
2 24883  98.8671 311.4704 0002252 166.3070 193.8176 14.35539288519435
SL-16 R/B               
1 25400U 98043G   26144.85845595  .00000035  00000+0  33652-4 0  9991
2 25400  98.8352  98.8190 0010349 148.2297 211.9508 14.26064149449845
SL-16 R/B               
1 25407U 98045B   26145.06844669 -.00000119  00000+0 -35708-4 0  9994
2 25407  71.0123  20.9503 0009666 268.8193  91.1822 14.16199172437915
ISS (ZARYA)             
1 25544U 98067A   26145.16420519  .00009873  00000+0  18471-3 0  9996
2 25544  51.6330  54.0759 0007478  95.4333 264.7509 15.49361343568183
CZ-4B R/B               
1 25732U 99025C   26145.14046449  .00000032  00000+0  35750-4 0  9992
2 25732  98.6499 187.5573 0038099 124.0865 301.7470 14.18278870399006
OKEAN-O                 
1 25860U 99039A   26145.09725455  .00000454  00000+0  66242-4 0  9992
2 25860  97.9328 204.1587 0001972  91.6567 268.4871 14.80434019445699
SL-16 R/B               
1 25861U 99039B   26145.14057696  .00000391  00000+0  56253-4 0  9995
2 25861  97.9850 204.0679 0015028  14.8018 345.3632 14.81817849448180
DELTA 2 R/B             
1 25876U 99041E   26145.03056244  .00000607  00000+0  13562-3 0  9995
2 25876  51.7654 356.2981 0501499 213.5844 143.2346 14.11967944373818
HELIOS 1B               
1 25977U 99064A   26145.18034132  .00001166  00000+0  13369-3 0  9996
2 25977  98.1634  49.6532 0001870 121.4734 238.6664 14.87933882696638
TERRA                   
1 25994U 99068A   26145.13699815  .00000292  00000+0  68420-4 0  9997
2 25994  97.9470 195.5955 0001183 336.8502  46.1501 14.61081390406242
SL-16 R/B               
1 26070U 00006B   26144.82110709  .00000266  00000+0  15913-3 0  9991
2 26070  71.0022 297.7555 0014660  62.6020 297.6593 14.15832527359334
TITAN 4B R/B            
1 26474U 00047B   26145.14354965  .00002170  00000+0  13842-3 0  9999
2 26474  67.9877 185.4293 0044887 310.7810  48.9448 15.10049876404457
ENVISAT                 
1 27386U 02009A   26145.15542428  .00000068  00000+0  35957-4 0  9992
2 27386  98.3824  96.9893 0001275  92.3914 278.1059 14.39058436270171
IDEFIX & ARIANE 42P R/B 
1 27422U 02021B   26145.05683061  .00000168  00000+0  80538-4 0  9991
2 27422  98.5938  82.7915 0011239 328.3434  31.7072 14.31069170254942
AQUA                    
1 27424U 02022A   26145.18784455  .00000638  00000+0  13679-3 0  9990
2 27424  98.4265 114.0139 0001909  64.8815 305.9047 14.62116117279911
CZ-4B R/B               
1 27432U 02024C   26145.10954255  .00000025  00000+0  35774-4 0  9991
2 27432  98.8713 198.0775 0050493 164.7834 250.2483 14.14560137240043
MIDORI II (ADEOS-II)    
1 27597U 02056A   26144.89742463  .00000223  00000+0  10530-3 0  9991
2 27597  98.7866 103.9615 0001985 108.5342 251.6055 14.29334471221183
H-2A R/B                
1 27601U 02056E   26144.91421196  .00000195  00000+0  83204-4 0  9994
2 27601  98.3301 102.4386 0069022 295.0962 130.9818 14.33809756225036
CZ-4B R/B               
1 28059U 03049C   26144.98901852  .00000297  00000+0  79573-4 0  9991
2 28059  98.6895 142.9132 0048123   0.3685 359.7538 14.55081067197692
CZ-2C R/B               
1 28222U 04012C   26145.12273323  .00084095  00000+0  57520-3 0  9991
2 28222  97.7104 218.1840 0009462  29.9614 330.2189 15.74473484216262
SL-16 R/B               
1 28353U 04021B   26145.10921865  .00000227  00000+0  14304-3 0  9993
2 28353  71.0017  72.1199 0007199 279.3678  80.6631 14.14610995133647
CZ-4B R/B               
1 28415U 04035C   26145.05251078  .00007804  00000+0  26521-3 0  9995
2 28415  97.3386 178.3916 0032675  59.5583 300.8879 15.30218825191585
CZ-2C R/B               
1 28480U 04046B   26145.19327622  .00000081  00000+0  45913-4 0  9990
2 28480  98.1960  55.4084 0138165 288.8493  69.7749 14.27019950119415
ARIANE 5 R/B            
1 28499U 04049H   26145.02538479  .00000692  00000+0  82296-4 0  9992
2 28499  98.2709 316.3867 0085249 103.5274 257.5455 14.85406330157126
